{
    "links": {
        "self": "http://www.neowsapp.com/rest/v1/neo/3408012?api_key=iIulBulltgU6a56xZRHN4H3l9WmuAYTsLGpBGhQ2"
    },
    "id": "3408012",
    "neo_reference_id": "3408012",
    "name": "(2008 GH)",
    "designation": "2008 GH",
    "nasa_jpl_url": "http://ssd.jpl.nasa.gov/sbdb.cgi?sstr=3408012",
    "absolute_magnitude_h": 23.8,
    "estimated_diameter": {
        "kilometers": {
            "estimated_diameter_min": 0.046190746,
            "estimated_diameter_max": 0.1032856481
        },
        "meters": {
            "estimated_diameter_min": 46.1907460282,
            "estimated_diameter_max": 103.2856480504
        },
        "miles": {
            "estimated_diameter_min": 0.0287015901,
            "estimated_diameter_max": 0.0641787064
        },
        "feet": {
            "estimated_diameter_min": 151.544447199,
            "estimated_diameter_max": 338.8636855496
        }
    },
    "is_potentially_hazardous_asteroid": false,
    "close_approach_data": [
        {
            "close_approach_date": "2008-03-19",
            "close_approach_date_full": "2008-Mar-19 00:07",
            "epoch_date_close_approach": 1205885220000,
            "relative_velocity": {
                "kilometers_per_second": "21.2586415853",
                "kilometers_per_hour": "76531.1097070638",
                "miles_per_hour": "47553.4553621475"
            },
            "miss_distance": {
                "astronomical": "0.036390363",
                "lunar": "14.155851207",
                "kilometers": "5443920.79332681",
                "miles": "3382695.523297578"
            },
            "orbiting_body": "Earth"
        }
    ],
    "orbital_data": {
        "orbit_id": "11",
        "orbit_determination_date": "2017-04-06 09:03:50",
        "first_observation_date": "2008-04-01",
        "last_observation_date": "2008-04-08",
        "data_arc_in_days": 7,
        "observations_used": 19,
        "orbit_uncertainty": "9",
        "minimum_orbit_intersection": ".0227825",
        "jupiter_tisserand_invariant": "2.936",
        "epoch_osculation": "2454560.5",
        "eccentricity": ".7706923791888978",
        "semi_major_axis": "2.543339477966021",
        "inclination": "2.077927437485006",
        "ascending_node_longitude": "321.4004528325972",
        "orbital_period": "1481.511154150666",
        "perihelion_distance": ".5832071246073389",
        "perihelion_argument": "131.8692001218242",
        "aphelion_distance": "4.503471831324702",
        "perihelion_time": "2454500.426959693918",
        "mean_anomaly": "14.59745642116858",
        "mean_motion": ".2429951330379176",
        "equinox": "J2000",
        "orbit_class": {
            "orbit_class_type": "APO",
            "orbit_class_description": "Near-Earth asteroid orbits which cross the Earth’s orbit similar to that of 1862 Apollo",
            "orbit_class_range": "a (semi-major axis) > 1.0 AU; q (perihelion) < 1.017 AU"
        }
    },
    "is_sentry_object": false
}